STARLINK-31256          
1 59161U 24044K   26068.78465645  .00000333  00000+0  21629-4 0  9995
2 59161  43.0000 106.1864 0001030 276.2359  83.8375 15.27568251113613
FLOCK 4G-21             
1 62651U 25009AU  26068.19487675  .00013648  00000+0  49619-3 0  9998
2 62651  97.4032 151.1274 0000465 329.5782  30.5431 15.28381075 63677
